ONEWEB-0473             
1 51653U 22012AH  26199.78992672 -.00000613  00000+0 -17929-2 0  9995
2 51653  87.8813  29.9772 0001848  90.3209 269.8130 13.10374574213445
ONEWEB-0474             
1 51654U 22012AJ  26199.24693227 -.00000692  00000+0 -20178-2 0  9998
2 51654  87.8821  30.0729 0001618  96.0030 264.1282 13.10372347213363
ONEWEB-0475             
1 51655U 22012AK  26199.81179034  .00000003  00000+0 -24302-4 0  9997
2 51655  87.9150 359.5815 0001562 113.6614 246.4681 13.17648068217854
ONEWEB-0490             
1 54113U 22138A   26199.82599950 -.00000067  00000+0 -20010-3 0  9994
2 54113  87.9192 298.6687 0002081 106.2164 253.9198 13.19725840181006
ONEWEB-0492             
1 54114U 22138B   26199.77544753  .00000039  00000+0  64525-4 0  9997
2 54114  87.9185 298.6781 0002249 102.7241 257.4143 13.19723907181008
ONEWEB-0495             
1 54115U 22138C   26199.82915994  .00000019  00000+0  14731-4 0  9995
2 54115  87.9186 298.6702 0002329 116.6887 243.4484 13.19726297180997
ONEWEB-0497             
1 54116U 22138D   26199.76596865  .00000094  00000+0  20275-3 0  9993
2 54116  87.9191 298.6767 0002049 102.8634 257.2728 13.19723825180977
ONEWEB-0499             
1 54117U 22138E   26199.82521250  .00000023  00000+0  24726-4 0  9995
2 54117  87.9186 298.6717 0002007 107.2357 252.8995 13.19724664180993
ONEWEB-0500             
1 54118U 22138F   26199.82758676  .00000026  00000+0  32895-4 0  9999
2 54118  87.9191 298.6679 0002056  98.8341 261.3025 13.19726957181008
ONEWEB-0501             
1 54119U 22138G   26199.78178469  .00000033  00000+0  51191-4 0  9999
2 54119  87.9194 298.6768 0002171 111.3450 248.7915 13.19726037180972
ONEWEB-0502             
1 54120U 22138H   26199.76754611  .00000076  00000+0  15799-3 0  9998
2 54120  87.9194 298.6687 0001963 107.8155 252.3192 13.19723631180991
ONEWEB-0503             
1 54121U 22138J   26199.75650101  .00000050  00000+0  93193-4 0  9994
2 54121  87.9195 298.6777 0001744  99.6478 260.4852 13.19726694180980
ONEWEB-0504             
1 54122U 22138K   26199.81968196  .00000064  00000+0  12860-3 0  9994
2 54122  87.9195 298.6691 0001904 106.1255 254.0088 13.19726147181008
ONEWEB-0505             
1 54123U 22138L   26199.81651264  .00000036  00000+0  57773-4 0  9992
2 54123  87.9192 298.6702 0002092 114.0236 246.1116 13.19723252180989
ONEWEB-0506             
1 54124U 22138M   26199.79126559 -.00000010  00000+0 -58125-4 0  9990
2 54124  87.9195 298.6732 0002078 110.1639 249.9717 13.19725126180973
ONEWEB-0507             
1 54125U 22138N   26199.81177948 -.00000008  00000+0 -52419-4 0  9999
2 54125  87.9186 298.6781 0002115 107.0994 253.0370 13.19726681181024
ONEWEB-0508             
1 54126U 22138P   26199.80862911 -.00000005  00000+0 -44407-4 0  9995
2 54126  87.9186 298.6786 0002277 109.7679 250.3699 13.19726070181002
ONEWEB-0509             
1 54127U 22138Q   26199.78335344  .00000021  00000+0  19695-4 0  9995
2 54127  87.9196 298.6763 0002077 105.4809 254.6553 13.19724213180973
ONEWEB-0510             
1 54128U 22138R   26199.72259330  .00000033  00000+0  49661-4 0  9999
2 54128  87.9177 268.1524 0001912  84.0777 276.0575 13.20770546183442
ONEWEB-0511             
1 54129U 22138S   26199.78018884  .00000028  00000+0  38588-4 0  9993
2 54129  87.9191 298.6783 0001789 105.0550 255.0781 13.19723463181009
ONEWEB-0512             
1 54130U 22138T   26199.77228661 -.00000163  00000+0 -44041-3 0  9992
2 54130  87.9184 298.6829 0001957 110.9002 249.2340 13.19724964180976
ONEWEB-0513             
1 54131U 22138U   26199.76491549  .00000027  00000+0  33961-4 0  9996
2 54131  87.9192 298.6246 0001734 127.9427 232.1863 13.20269878180882
ONEWEB-0514             
1 54132U 22138V   26199.78808866 -.00000137  00000+0 -37421-3 0  9991
2 54132  87.9194 298.6760 0001958  97.3733 262.7622 13.19724834180994
ONEWEB-0515             
1 54133U 22138W   26199.70913606 -.00000021  00000+0 -82494-4 0  9996
2 54133  87.9186 268.1508 0002711  84.5859 275.5583 13.20771842183469
ONEWEB-0516             
1 54134U 22138X   26199.76281611  .00000081  00000+0  16892-3 0  9999
2 54134  87.9185 298.6848 0002155 101.6164 258.5211 13.19724203180997
ONEWEB-0517             
1 54135U 22138Y   26199.81810269  .00000020  00000+0  17661-4 0  9992
2 54135  87.9192 298.6685 0001706  99.5344 260.5982 13.19726034181006
ONEWEB-0518             
1 54136U 22138Z   26199.76124214  .00000037  00000+0  59229-4 0  9999
2 54136  87.9187 298.6872 0002230 100.2733 259.8652 13.19724437180991
ONEWEB-0519             
1 54137U 22138AA  26199.78650476  .00000015  00000+0  44925-5 0  9990
2 54137  87.9192 298.6759 0001817  99.0113 261.1225 13.19723680181003
ONEWEB-0520             
1 54138U 22138AB  26199.82126213 -.00000152  00000+0 -41307-3 0  9996
2 54138  87.9193 298.6694 0002109 107.8979 252.2384 13.19725604180998
ONEWEB-0521             
1 54139U 22138AC  26199.77859942 -.00000166  00000+0 -44783-3 0  9999
2 54139  87.9196 298.6669 0001797  97.4214 262.7123 13.19725263180934
